[{"OBJECT_NAME":"STARLINK-30335","OBJECT_ID":"2023-129N","EPOCH":"2026-03-09T03:49:43.614912","MEAN_MOTION":15.26729078,"ECCENTRICITY":0.00012729,"INCLINATION":42.9975,"RA_OF_ASC_NODE":120.7118,"ARG_OF_PERICENTER":246.3982,"MEAN_ANOMALY":113.6736,"EPHEMERIS_TYPE":0,"CLASSIFICATION_TYPE":"U","NORAD_CAT_ID":57710,"ELEMENT_SET_NO":999,"REV_AT_EPOCH":14060,"BSTAR":5.0160854e-5,"MEAN_MOTION_DOT":1.086e-5,"MEAN_MOTION_DDOT":0},{"OBJECT_NAME":"OBJECT D","OBJECT_ID":"2021-102D","EPOCH":"2026-03-09T14:47:14.426880","MEAN_MOTION":15.2846442,"ECCENTRICITY":0.0009157,"INCLINATION":97.3342,"RA_OF_ASC_NODE":112.2633,"ARG_OF_PERICENTER":187.6206,"MEAN_ANOMALY":172.4897,"EPHEMERIS_TYPE":0,"CLASSIFICATION_TYPE":"U","NORAD_CAT_ID":49398,"ELEMENT_SET_NO":999,"REV_AT_EPOCH":23880,"BSTAR":0.00046011,"MEAN_MOTION_DOT":0.00012697,"MEAN_MOTION_DDOT":0}]
